NETSAT-2                
1 46507U 20068X   26068.93379059  .00027118  00000+0  64543-3 0  9998
2 46507  97.8659  69.0583 0004440  21.2445 338.8984 15.41593314300427
STARLINK-34379          
1 64302U 25123M   26068.67949754  .00048253  00000+0  10994-2 0  9997
2 64302  70.0035 164.9522 0002105 264.6455  95.4487 15.42688332 42354
